ISS (ZARYA)
1 25544U 98067A   26232.75924728  .00009536  00000+0  17761-3 0  9996
2 25544  51.6330 340.5034 0007690  67.3286 292.8515 15.49535659581764
HST
1 20580U 98067A   26232.50000000  .00001000  00000+0  10000-4 0  9990
2 20580  28.4700 100.0000 0002000  10.0000 350.0000 15.00000000100007
AQUA
1 28424U 98067A   26232.50000000  .00001000  00000+0  10000-4 0  9995
2 28424  98.2000  50.0000 0002000  90.0000 270.0000 14.60000000100008
TERRA
1 25994U 98067A   26232.50000000  .00001000  00000+0  10000-4 0  9994
2 25994  98.2000  70.0000 0002000  90.0000 270.0000 14.60000000100009
CSS (TIANHE)
1 48274U 98067A   26232.50000000  .00001000  00000+0  10000-4 0  9990
2 48274  41.5000  10.0000 0001000  10.0000 350.0000 15.50000000100000
STARLINK-1
1 44235U 98067A   26232.50000000  .00001000  00000+0  10000-4 0  9993
2 44235  53.0000  10.0000 0001000  90.0000   0.0000 15.06390000100004
STARLINK-2
1 44236U 98067A   26232.50000000  .00001000  00000+0  10000-4 0  9994
2 44236  53.0000  34.0000 0001000  90.0000  25.0000 15.06390000100019
STARLINK-3
1 44237U 98067A   26232.50000000  .00001000  00000+0  10000-4 0  9995
2 44237  53.0000  58.0000 0001000  90.0000  50.0000 15.06390000100025
STARLINK-4
1 44238U 98067A   26232.50000000  .00001000  00000+0  10000-4 0  9996
2 44238  53.0000  82.0000 0001000  90.0000  75.0000 15.06390000100031
STARLINK-5
1 44239U 98067A   26232.50000000  .00001000  00000+0  10000-4 0  9997
2 44239  53.0000 106.0000 0001000  90.0000 100.0000 15.06390000100049
STARLINK-6
1 44240U 98067A   26232.50000000  .00001000  00000+0  10000-4 0  9999
2 44240  53.0000 130.0000 0001000  90.0000 125.0000 15.06390000100056
STARLINK-7
1 44241U 98067A   26232.50000000  .00001000  00000+0  10000-4 0  9990
2 44241  53.0000 154.0000 0001000  90.0000 150.0000 15.06390000100062
STARLINK-8
1 44242U 98067A   26232.50000000  .00001000  00000+0  10000-4 0  9991
2 44242  53.0000 178.0000 0001000  90.0000 175.0000 15.06390000100077
STARLINK-9
1 44243U 98067A   26232.50000000  .00001000  00000+0  10000-4 0  9992
2 44243  53.0000 202.0000 0001000  90.0000 200.0000 15.06390000100086
STARLINK-10
1 44244U 98067A   26232.50000000  .00001000  00000+0  10000-4 0  9993
2 44244  53.0000 226.0000 0001000  90.0000 225.0000 15.06390000100091
STARLINK-11
1 44245U 98067A   26232.50000000  .00001000  00000+0  10000-4 0  9994
2 44245  53.0000 250.0000 0001000  90.0000 250.0000 15.06390000100109
STARLINK-12
1 44246U 98067A   26232.50000000  .00001000  00000+0  10000-4 0  9995
2 44246  53.0000 274.0000 0001000  90.0000 275.0000 15.06390000100114
STARLINK-13
1 44247U 98067A   26232.50000000  .00001000  00000+0  10000-4 0  9996
2 44247  53.0000 298.0000 0001000  90.0000 300.0000 15.06390000100121
STARLINK-14
1 44248U 98067A   26232.50000000  .00001000  00000+0  10000-4 0  9997
2 44248  53.0000 322.0000 0001000  90.0000 325.0000 15.06390000100138
STARLINK-15
1 44249U 98067A   26232.50000000  .00001000  00000+0  10000-4 0  9998
2 44249  53.0000 346.0000 0001000  90.0000 350.0000 15.06390000100144
GPS BIIA-1 (PRN 1)
1 38833U 98067A   26232.50000000  .00001000  00000+0  10000-4 0  9990
2 38833  55.0000   0.0000 0100000 270.0000   0.0000  2.00560000100001
GPS BIIA-2 (PRN 2)
1 38834U 98067A   26232.50000000  .00001000  00000+0  10000-4 0  9991
2 38834  55.0000  60.0000 0100000 270.0000   0.0000  2.00560000100019
GPS BIIA-3 (PRN 3)
1 38835U 98067A   26232.50000000  .00001000  00000+0  10000-4 0  9992
2 38835  55.0000 120.0000 0100000 270.0000   0.0000  2.00560000100028
GPS BIIA-4 (PRN 4)
1 38836U 98067A   26232.50000000  .00001000  00000+0  10000-4 0  9993
2 38836  55.0000 180.0000 0100000 270.0000   0.0000  2.00560000100036
GPS BIIA-5 (PRN 5)
1 38837U 98067A   26232.50000000  .00001000  00000+0  10000-4 0  9994
2 38837  55.0000 240.0000 0100000 270.0000   0.0000  2.00560000100045
ONEWEB-1
1 45131U 98067A   26232.50000000  .00001000  00000+0  10000-4 0  9999
2 45131  87.9000   0.0000 0001000  90.0000   0.0000 14.60000000100002
ONEWEB-2
1 45132U 98067A   26232.50000000  .00001000  00000+0  10000-4 0  9990
2 45132  87.9000  72.0000 0001000  90.0000  72.0000 14.60000000100012
ONEWEB-3
1 45133U 98067A   26232.50000000  .00001000  00000+0  10000-4 0  9991
2 45133  87.9000 144.0000 0001000  90.0000 144.0000 14.60000000100024
ONEWEB-4
1 45134U 98067A   26232.50000000  .00001000  00000+0  10000-4 0  9992
2 45134  87.9000 216.0000 0001000  90.0000 216.0000 14.60000000100036
ONEWEB-5
1 45135U 98067A   26232.50000000  .00001000  00000+0  10000-4 0  9993
2 45135  87.9000 288.0000 0001000  90.0000 288.0000 14.60000000100046
NOAA 19
1 33591U 98067A   26232.50000000  .00001000  00000+0  10000-4 0  9996
2 33591  99.1000  30.0000 0011000  90.0000 270.0000 14.10000000100002
GOES 16
1 41866U 98067A   26232.50000000  .00001000  00000+0  10000-4 0  9990
2 41866   0.0500  75.0000 0003000  90.0000 270.0000  1.00270000100006
